NORAD_CAT_ID,OBJECT_NAME,OBJECT_TYPE,EPOCH,MEAN_MOTION,ECCENTRICITY,INCLINATION,RA_OF_ASC_NODE,ARG_OF_PERICENTER,MEAN_ANOMALY,BSTAR,MEAN_MOTION_DOT,MEAN_MOTION_DDOT,TLE_LINE0,TLE_LINE1,TLE_LINE2,SEMIMAJOR_AXIS,PERIOD,APOGEE,PERIGEE,DECAYED
49428.0,STARLINK-3121,PAYLOAD,2024-08-21 08:38:46,15.08841048,0.0001499,53.2157,246.8967,84.3127,275.8036,7.2093e-05,8.6e-06,0.0,0 STARLINK-3121,1 49428U 21104W   24234.36026602  .00000860  00000-0  72093-4 0  9994,2 49428  53.2157 246.8967 0001499  84.3127 275.8036 15.08841048153292,6917.877,95.437,540.779,538.705,0.0
